{"type": "FeatureCollection", "features": [ {"type": "Feature", "properties": {"norad_id": 40697, "name": "SENTINEL-2A", "group": "resource", "lat": -79.77924199342047, "lon": 173.64186770167873, "alt_km": 797.052687466231, "timestamp": "2025-12-03T17:47:50.369322+00:00", "meta": {"OBJECT_NAME": "SENTINEL-2A", "OBJECT_ID": "2015-028A", "EPOCH": "2025-12-03T11:31:49.189152", "MEAN_MOTION": 14.30821322, "ECCENTRICITY": 0.0001041, "INCLINATION": 98.5703, "RA_OF_ASC_NODE": 50.145, "ARG_OF_PERICENTER": 93.8356, "MEAN_ANOMALY": 266.2946, "EPHEMERIS_TYPE": 0, "CLASSIFICATION_TYPE": "U", "NORAD_CAT_ID": 40697, "ELEMENT_SET_NO": 999, "REV_AT_EPOCH": 54574, "BSTAR": 0.00011406, "MEAN_MOTION_DOT": 2.55e-06, "MEAN_MOTION_DDOT": 0}, "tle": {"line1": "1 40697U 15028A   25337.48043043  .00000255  00000+0  11406-3 0  9994", "line2": "2 40697  98.5703  50.1450 0001041  93.8356 266.2946 14.30821322545741"}}, "geometry": {"type": "Point", "coordinates": [173.64186770167873, -79.77924199342047]}}, {"type": "Feature", "properties": {"norad_id": 40701, "name": "GAOFEN-8", "group": "resource", "lat": 72.64558702296536, "lon": 129.8257742487798, "alt_km": 445.56622144745415, "timestamp": "2025-12-03T17:47:50.369332+00:00", "meta": {"OBJECT_NAME": "GAOFEN-8", "OBJECT_ID": "2015-030A", "EPOCH": "2025-12-03T12:47:25.272960", "MEAN_MOTION": 15.38056209, "ECCENTRICITY": 0.0011198, "INCLINATION": 97.6905, "RA_OF_ASC_NODE": 155.228, "ARG_OF_PERICENTER": 170.5218, "MEAN_ANOMALY": 189.624, "EPHEMERIS_TYPE": 0, "CLASSIFICATION_TYPE": "U", "NORAD_CAT_ID": 40701, "ELEMENT_SET_NO": 999, "REV_AT_EPOCH": 58129, "BSTAR": 0.00067951, "MEAN_MOTION_DOT": 0.00025465, "MEAN_MOTION_DDOT": 0}, "tle": {"line1": "1 40701U 15030A   25337.53293140  .00025465  00000+0  67951-3 0  9990", "line2": "2 40701  97.6905 155.2280 0011198 170.5218 189.6240 15.38056209581291"}}, "geometry": {"type": "Point", "coordinates": [129.8257742487798, 72.64558702296536]}}, {"type": "Feature", "properties": {"norad_id": 40718, "name": "CARBONITE 1 (CBNT-1)", "group": "resource", "lat": 4.612410973929511, "lon": 158.56150613040802, "alt_km": 631.9366299640733, "timestamp": "2025-12-03T17:47:50.369343+00:00", "meta": {"OBJECT_NAME": "CARBONITE 1 (CBNT-1)", "OBJECT_ID": "2015-032D", "EPOCH": "2025-12-03T12:55:02.120736", "MEAN_MOTION": 14.8267251, "ECCENTRICITY": 0.0013853, "INCLINATION": 97.6399, "RA_OF_ASC_NODE": 158.9877, "ARG_OF_PERICENTER": 212.5471, "MEAN_ANOMALY": 147.489, "EPHEMERIS_TYPE": 0, "CLASSIFICATION_TYPE": "U", "NORAD_CAT_ID": 40718, "ELEMENT_SET_NO": 999, "REV_AT_EPOCH": 56034, "BSTAR": 0.00048362, "MEAN_MOTION_DOT": 3.856e-05, "MEAN_MOTION_DDOT": 0}, "tle": {"line1": "1 40718U 15032D   25337.53821899  .00003856  00000+0  48362-3 0  9993", "line2": "2 40718  97.6399 158.9877 0013853 212.5471 147.4890 14.82672510560349"}}, "geometry": {"type": "Point", "coordinates": [158.56150613040802, 4.612410973929511]}}, {"type": "Feature", "properties": {"norad_id": 40878, "name": "YAOGAN-27", "group": "resource", "lat": 51.48330669985627, "lon": -45.17177886749093, "alt_km": 1196.2954064240212, "timestamp": "2025-12-03T17:47:50.369354+00:00", "meta": {"OBJECT_NAME": "YAOGAN-27", "OBJECT_ID": "2015-040A", "EPOCH": "2025-12-03T12:03:26.553024", "MEAN_MOTION": 13.1605964, "ECCENTRICITY": 0.0007739, "INCLINATION": 100.1004, "RA_OF_ASC_NODE": 327.5405, "ARG_OF_PERICENTER": 309.4799, "MEAN_ANOMALY": 50.563, "EPHEMERIS_TYPE": 0, "CLASSIFICATION_TYPE": "U", "NORAD_CAT_ID": 40878, "ELEMENT_SET_NO": 999, "REV_AT_EPOCH": 49192, "BSTAR": 3.1693e-05, "MEAN_MOTION_DOT": -3e-07, "MEAN_MOTION_DDOT": 0}, "tle": {"line1": "1 40878U 15040A   25337.50239066 -.00000030  00000+0  31693-4 0  9997", "line2": "2 40878 100.1004 327.5405 0007739 309.4799  50.5630 13.16059640491927"}}, "geometry": {"type": "Point", "coordinates": [-45.17177886749093, 51.48330669985627]}}, {"type": "Feature", "properties": {"norad_id": 40894, "name": "GAOFEN-9 01", "group": "resource", "lat": -63.84025774839945, "lon": 32.978088896487606, "alt_km": 641.3101780990055, "timestamp": "2025-12-03T17:47:50.369364+00:00", "meta": {"OBJECT_NAME": "GAOFEN-9 01", "OBJECT_ID": "2015-047A", "EPOCH": "2025-12-03T13:13:47.421984", "MEAN_MOTION": 14.82384209, "ECCENTRICITY": 0.0028928, "INCLINATION": 97.6555, "RA_OF_ASC_NODE": 16.9033, "ARG_OF_PERICENTER": 63.2387, "MEAN_ANOMALY": 297.1782, "EPHEMERIS_TYPE": 0, "CLASSIFICATION_TYPE": "U", "NORAD_CAT_ID": 40894, "ELEMENT_SET_NO": 999, "REV_AT_EPOCH": 55120, "BSTAR": 0.00022968, "MEAN_MOTION_DOT": 1.801e-05, "MEAN_MOTION_DDOT": 0}, "tle": {"line1": "1 40894U 15047A   25337.55124331  .00001801  00000+0  22968-3 0  9995", "line2": "2 40894  97.6555  16.9033 0028928  63.2387 297.1782 14.82384209551204"}}, "geometry": {"type": "Point", "coordinates": [32.978088896487606, -63.84025774839945]}}, {"type": "Feature", "properties": {"norad_id": 41026, "name": "YAOGAN-28", "group": "resource", "lat": 5.775803161781933, "lon": -63.46957655342642, "alt_km": 487.99299731783594, "timestamp": "2025-12-03T17:47:50.369374+00:00", "meta": {"OBJECT_NAME": "YAOGAN-28", "OBJECT_ID": "2015-064A", "EPOCH": "2025-12-03T12:18:33.528384", "MEAN_MOTION": 15.24096026, "ECCENTRICITY": 0.0011961, "INCLINATION": 97.2798, "RA_OF_ASC_NODE": 115.5675, "ARG_OF_PERICENTER": 156.5665, "MEAN_ANOMALY": 203.612, "EPHEMERIS_TYPE": 0, "CLASSIFICATION_TYPE": "U", "NORAD_CAT_ID": 41026, "ELEMENT_SET_NO": 999, "REV_AT_EPOCH": 56084, "BSTAR": 0.00047578, "MEAN_MOTION_DOT": 0.00011518, "MEAN_MOTION_DDOT": 0}, "tle": {"line1": "1 41026U 15064A   25337.51288806  .00011518  00000+0  47578-3 0  9996", "line2": "2 41026  97.2798 115.5675 0011961 156.5665 203.6120 15.24096026560841"}}, "geometry": {"type": "Point", "coordinates": [-63.46957655342642, 5.775803161781933]}}, {"type": "Feature", "properties": {"norad_id": 41038, "name": "YAOGAN-29", "group": "resource", "lat": 12.011707240049805, "lon": -177.39629639919562, "alt_km": 622.1195495520742, "timestamp": "2025-12-03T17:47:50.369385+00:00", "meta": {"OBJECT_NAME": "YAOGAN-29", "OBJECT_ID": "2015-069A", "EPOCH": "2025-12-03T12:11:05.395776", "MEAN_MOTION": 14.82865956, "ECCENTRICITY": 7.53e-05, "INCLINATION": 98.0228, "RA_OF_ASC_NODE": 0.6494, "ARG_OF_PERICENTER": 7.0227, "MEAN_ANOMALY": 353.0996, "EPHEMERIS_TYPE": 0, "CLASSIFICATION_TYPE": "U", "NORAD_CAT_ID": 41038, "ELEMENT_SET_NO": 999, "REV_AT_EPOCH": 54162, "BSTAR": 0.00010437, "MEAN_MOTION_DOT": 7.91e-06, "MEAN_MOTION_DDOT": 0}, "tle": {"line1": "1 41038U 15069A   25337.50770134  .00000791  00000+0  10437-3 0  9998", "line2": "2 41038  98.0228   0.6494 0000753   7.0227 353.0996 14.82865956541620"}}, "geometry": {"type": "Point", "coordinates": [-177.39629639919562, 12.011707240049805]}}, {"type": "Feature", "properties": {"norad_id": 41167, "name": "KENT RIDGE 1", "group": "resource", "lat": 14.772675422972412, "lon": -1.6323630038573462, "alt_km": 495.07818162361946, "timestamp": "2025-12-03T17:47:50.369395+00:00", "meta": {"OBJECT_NAME": "KENT RIDGE 1", "OBJECT_ID": "2015-077B", "EPOCH": "2025-12-03T04:51:29.321280", "MEAN_MOTION": 15.21515134, "ECCENTRICITY": 0.00086777, "INCLINATION": 14.9806, "RA_OF_ASC_NODE": 281.9029, "ARG_OF_PERICENTER": 355.7263, "MEAN_ANOMALY": 4.2984, "EPHEMERIS_TYPE": 0, "CLASSIFICATION_TYPE": "U", "NORAD_CAT_ID": 41167, "ELEMENT_SET_NO": 999, "REV_AT_EPOCH": 55118, "BSTAR": 0.0002495538, "MEAN_MOTION_DOT": 6.551e-05, "MEAN_MOTION_DDOT": 0}, "tle": {"line1": "1 41167U 15077B   25337.20242270  .00006551  00000+0  24955-3 0  9992", "line2": "2 41167  14.9806 281.9029 0008677 355.7263   4.2984 15.21515134551184"}}, "geometry": {"type": "Point", "coordinates": [-1.6323630038573462, 14.772675422972412]}}, {"type": "Feature", "properties": {"norad_id": 41194, "name": "GAOFEN-4", "group": "resource", "lat": 0.034928518978356145, "lon": 85.40509905969627, "alt_km": 35788.32394217184, "timestamp": "2025-12-03T17:47:50.369409+00:00", "meta": {"OBJECT_NAME": "GAOFEN-4", "OBJECT_ID": "2015-083A", "EPOCH": "2025-12-03T10:50:00.015648", "MEAN_MOTION": 1.00273574, "ECCENTRICITY": 0.0003742, "INCLINATION": 0.1448, "RA_OF_ASC_NODE": 80.6995, "ARG_OF_PERICENTER": 104.3544, "MEAN_ANOMALY": 155.67, "EPHEMERIS_TYPE": 0, "CLASSIFICATION_TYPE": "U", "NORAD_CAT_ID": 41194, "ELEMENT_SET_NO": 999, "REV_AT_EPOCH": 3656, "BSTAR": 0, "MEAN_MOTION_DOT": -3.17e-06, "MEAN_MOTION_DDOT": 0}, "tle": {"line1": "1 41194U 15083A   25337.45138907 -.00000317  00000+0  00000+0 0  9993", "line2": "2 41194   0.1448  80.6995 0003742 104.3544 155.6700  1.00273574 36565"}}, "geometry": {"type": "Point", "coordinates": [85.40509905969627, 0.034928518978356145]}}, {"type": "Feature", "properties": {"norad_id": 41240, "name": "JASON-3", "group": "resource", "lat": 4.470011531889816, "lon": 178.73446758645872, "alt_km": 1312.731478237156, "timestamp": "2025-12-03T17:47:50.369420+00:00", "meta": {"OBJECT_NAME": "JASON-3", "OBJECT_ID": "2016-002A", "EPOCH": "2025-12-03T12:10:47.119584", "MEAN_MOTION": 12.87626006, "ECCENTRICITY": 0.0007141, "INCLINATION": 66.0392, "RA_OF_ASC_NODE": 177.2344, "ARG_OF_PERICENTER": 270.3023, "MEAN_ANOMALY": 89.7177, "EPHEMERIS_TYPE": 0, "CLASSIFICATION_TYPE": "U", "NORAD_CAT_ID": 41240, "ELEMENT_SET_NO": 999, "REV_AT_EPOCH": 46205, "BSTAR": 0.00017506, "MEAN_MOTION_DOT": -1.8e-07, "MEAN_MOTION_DDOT": 0}, "tle": {"line1": "1 41240U 16002A   25337.50748981 -.00000018  00000+0  17506-3 0  9993", "line2": "2 41240  66.0392 177.2344 0007141 270.3023  89.7177 12.87626006462051"}}, "geometry": {"type": "Point", "coordinates": [178.73446758645872, 4.470011531889816]}}]}